[{"OBJECT_NAME":"STARLINK-31451","OBJECT_ID":"2024-060U","EPOCH":"2026-03-09T12:55:43.254048","MEAN_MOTION":15.27579905,"ECCENTRICITY":0.00011776,"INCLINATION":43.0004,"RA_OF_ASC_NODE":260.3726,"ARG_OF_PERICENTER":278.2614,"MEAN_ANOMALY":81.8104,"EPHEMERIS_TYPE":0,"CLASSIFICATION_TYPE":"U","NORAD_CAT_ID":59366,"ELEMENT_SET_NO":999,"REV_AT_EPOCH":11004,"BSTAR":3.1325835e-5,"MEAN_MOTION_DOT":6.0e-6,"MEAN_MOTION_DDOT":0},{"OBJECT_NAME":"OBJECT J","OBJECT_ID":"2026-023J","EPOCH":"2026-03-09T17:10:35.014656","MEAN_MOTION":15.23262782,"ECCENTRICITY":0.00239883,"INCLINATION":96.6344,"RA_OF_ASC_NODE":144.1739,"ARG_OF_PERICENTER":114.5009,"MEAN_ANOMALY":245.8735,"EPHEMERIS_TYPE":0,"CLASSIFICATION_TYPE":"U","NORAD_CAT_ID":67682,"ELEMENT_SET_NO":999,"REV_AT_EPOCH":484,"BSTAR":0.00057379131,"MEAN_MOTION_DOT":0.00013658,"MEAN_MOTION_DDOT":0}]
